[{"id":"64894","name":"INNOSAT 3 (RS92S0)","tle1":"1 64894U 25155U   26176.28372299  .00047792  00000+0  10318-2 0  9996","tle2":"2 64894  97.4482 147.9758 0007628 132.7475 227.4416 15.44364179 82213"},{"id":"67683","name":"KNACKSAT-2","tle1":"1 67683U 98067XZ  26175.45987298  .00042840  00000+0  51124-3 0  9996","tle2":"2 67683  51.6280 257.8789 0008722 247.7542 112.2526 15.60565683 21412"}]