OBJECT_NAME,OBJECT_ID,EPOCH,MEAN_MOTION,ECCENTRICITY,INCLINATION,RA_OF_ASC_NODE,ARG_OF_PERICENTER,MEAN_ANOMALY,EPHEMERIS_TYPE,CLASSIFICATION_TYPE,NORAD_CAT_ID,ELEMENT_SET_NO,REV_AT_EPOCH,BSTAR,MEAN_MOTION_DOT,MEAN_MOTION_DDOT
INNOSAT 3 (RS92S0),2025-155U,2026-06-25T06:48:33.666336,15.44364179,.00076286,97.4482,147.9758,132.7475,227.4416,0,U,64894,999,8221,.10317573E-2,.47792E-3,0
KNACKSAT-2,1998-067XZ,2026-06-24T11:02:13.025472,15.60565683,.00087227,51.6280,257.8789,247.7542,112.2526,0,U,67683,999,2141,.5112383E-3,.4284E-3,0
